STARLINK-5443           
1 54781U 22175Z   25275.00807801  .00000584  00000+0  54752-4 0  9990
2 54781  53.2184  21.4879 0001242  86.1552 273.9583 15.08842452156173
STARLINK-5439           
1 54783U 22175AB  25275.00439925 -.00000178  00000+0  69034-5 0  9990
2 54783  53.2190  21.4701 0001361  83.4107 276.7040 15.08836334156175
STARLINK-5442           
1 54784U 22175AC  25275.05267140  .00010655  00000+0  68662-3 0  9998
2 54784  53.2170  36.0289 0001444  87.6642 272.4516 15.08834640155975
STARLINK-5440           
1 54785U 22175AD  25274.91974132  .00001434  00000+0  10819-3 0  9995
2 54785  53.2156 341.7386 0001363 100.3950 259.7196 15.08841459156721
STARLINK-5441           
1 54787U 22175AF  25275.04897948  .00003030  00000+0  20835-3 0  9994
2 54787  53.2190  36.0077 0001329  99.7233 260.3909 15.08847248155977
STARLINK-5399           
1 54788U 22175AG  25274.99334912 -.00000205  00000+0  51950-5 0  9991
2 54788  53.2177  21.4006 0001032  80.1485 279.9623 15.08821967156179
STARLINK-5446           
1 54789U 22175AH  25274.99286794  .00000143  00000+0  27065-4 0  9995
2 54789  53.2195   6.3068 0001386  90.1083 270.0068 15.08838237156383
STARLINK-5445           
1 54790U 22175AJ  25274.58853590 -.00003005  00000+0 -17077-3 0  9999
2 54790  53.2181  23.1390 0001309  95.3225 264.7916 15.08841692156117
STARLINK-5425           
1 54791U 22175AK  25275.00069257  .00000141  00000+0  26925-4 0  9996
2 54791  53.2197  21.4520 0001046 114.4082 245.7019 15.08870936156175
STARLINK-5431           
1 54792U 22175AL  25275.04161274  .00000091  00000+0  23843-4 0  9993
2 54792  53.2184  35.9631 0001601  93.4713 266.6462 15.08839423155976
STARLINK-5433           
1 54793U 22175AM  25275.00163814 -.00000244  00000+0  27582-5 0  9998
2 54793  53.2191  11.5124 0001542  87.4474 272.6694 15.08836222156310
STARLINK-5436           
1 54795U 22175AP  25274.98965565 -.00000322  00000+0 -21411-5 0  9992
2 54795  53.2213  21.3820 0001743  93.6281 266.4910 15.08840715156175
STARLINK-5415           
1 54796U 22175AQ  25274.51860185 -.00001071  00000+0 -49191-4 0  9990
2 54796  53.2181  23.4227 0001565  64.9598 295.1557 15.08839785156102
STARLINK-5435           
1 54797U 22175AR  25275.06099638  .00001080  00000+0  85969-4 0  9990
2 54797  53.2172  36.0741 0001714  88.1038 272.0150 15.08838329155977
STARLINK-5420           
1 54798U 22175AS  25274.97953569  .00000321  00000+0  38243-4 0  9992
2 54798  53.2196  11.3652 0001741  83.7902 276.3289 15.08835182156315
STARLINK-5421           
1 54799U 22175AT  25274.99795075  .00000016  00000+0  19090-4 0  9991
2 54799  53.2186  11.4795 0001401  98.9182 261.1969 15.08845476156319
STARLINK-5428           
1 54800U 22175AU  25274.58990385 -.00001037  00000+0 -47048-4 0  9990
2 54800  53.2175  28.1174 0001544  93.6177 266.4992 15.08843827156042
STARLINK-5429           
1 54801U 22175AV  25275.03425003 -.00000515  00000+0 -14287-4 0  9991
2 54801  53.2181  35.9112 0001268  67.7150 292.3977 15.08832502155974
STARLINK-5426           
1 54802U 22175AW  25274.89025216 -.00002637  00000+0 -14769-3 0  9998
2 54802  53.2195 341.4579 0001584  91.4809 268.6365 15.08827274156729
STARLINK-5430           
1 54803U 22175AX  25275.04529980 -.00000186  00000+0  64239-5 0  9999
2 54803  53.2200  35.9737 0001559 105.9910 254.1254 15.08830800155976
STARLINK-5422           
1 54804U 22175AY  25275.02641933 -.00001029  00000+0 -46574-4 0  9990
2 54804  53.2184  20.9053 0001344  95.5099 264.6047 15.08841210156184
STARLINK-5417           
1 54805U 22175AZ  25274.58115370 -.00000683  00000+0 -24841-4 0  9990
2 54805  53.2182  23.0963 0001424  93.3740 266.7416 15.08840255156119
STARLINK-5412           
1 54806U 22175BA  25275.03377738  .00024615  00000+0  15581-2 0  9998
2 54806  53.2171  20.9448 0001301  80.9737 279.1402 15.08868872156189
STARLINK-5410           
1 54807U 22175BB  25275.03746934 -.00000543  00000+0 -16014-4 0  9997
2 54807  53.2214  20.9702 0001634  94.1385 265.9794 15.08839434156185
STARLINK-5413           
1 54808U 22175BC  25274.54763692 -.00001184  00000+0 -56356-4 0  9998
2 54808  53.2187   8.7055 0001150  82.7245 277.3878 15.08834841156313
STARLINK-5414           
1 54809U 22175BD  25275.03008955  .00006119  00000+0  40200-3 0  9999
2 54809  53.2183  20.9210 0001574 105.7715 254.3451 15.08856791156182
STARLINK-5408           
1 54810U 22175BE  25274.98458304 -.00001952  00000+0 -10458-3 0  9995
2 54810  53.2191  16.3494 0001514  87.4956 272.6209 15.08837292156249
STARLINK-5424           
1 54811U 22175BF  25275.01134731  .00011939  00000+0  76638-3 0  9992
2 54811  53.2189  16.4995 0001044  92.1327 267.9785 15.08868307156244
GAOFEN-11 04            
1 54818U 22176A   25275.19958479  .00026547  00000+0  11160-2 0  9991
2 54818  97.3906  46.7681 0002530  99.6307 260.5216 15.23385471153974
STARLINK-5382           
1 54820U 22177A   25274.48519026 -.00003018  00000+0 -20854-3 0  9998
2 54820  43.0041 278.6774 0001161 275.7302  84.3408 15.02517038153007
STARLINK-5385           
1 54821U 22177B   25275.00477838 -.00002482  00000+0 -16870-3 0  9999
2 54821  43.0043 275.7008 0001170 268.9549  91.1159 15.02546317153084
STARLINK-5101           
1 54822U 22177C   25275.00034050  .00000590  00000+0  58752-4 0  9997
2 54822  43.0013 275.6663 0000395 304.5754  55.5051 15.02529566153083
STARLINK-5106           
1 54823U 22177D   25275.01366017  .00000896  00000+0  81403-4 0  9998
2 54823  43.0021 275.7635 0001069 261.4213  98.6508 15.02534014153082
STARLINK-4643           
1 54824U 22177E   25275.07680345 -.00000102  00000+0  75917-5 0  9993
2 54824  43.0088 275.3805 0002767 289.2987  70.7556 15.02540371153091
STARLINK-4801           
1 54825U 22177F   25274.85754977  .08966872  90208-5  23633-2 0  9994
2 54825  42.9871 218.3787 0004297 242.1551 117.8902 16.27468364153728
STARLINK-5107           
1 54826U 22177G   25275.06794896 -.00001843  00000+0 -12141-3 0  9993
2 54826  43.0060 275.3143 0001561 273.6018  86.4645 15.02519520153096
STARLINK-5383           
1 54827U 22177H   25274.46185713 -.00000091  00000+0  83349-5 0  9992
2 54827  43.0038 278.5043 0001198 262.6504  97.4202 15.02534494153010
STARLINK-5381           
1 54828U 22177J   25275.05683413 -.00005087  00000+0 -36152-3 0  9998
2 54828  43.0037 275.2295 0001300 264.8413  95.2281 15.02563470153098
STARLINK-5394           
1 54830U 22177L   25275.05127810  .00001083  00000+0  95264-4 0  9995
2 54830  43.0056 275.1874 0001014 284.2414  75.8316 15.02535773153091
STARLINK-5395           
1 54831U 22177M   25275.00366941  .00000584  00000+0  58303-4 0  9999
2 54831  42.9999 275.6774 0000828 272.7923  87.2824 15.02536599153086
STARLINK-5393           
1 54832U 22177N   25274.82590589  .01057879  00000+0  29786-2 0  9997
2 54832  42.9971 240.6427 0001933 266.1619  93.9035 15.90272643153476
STARLINK-5391           
1 54833U 22177P   25275.05793605  .00001710  00000+0  14163-3 0  9994
2 54833  43.0044 275.2365 0001227 279.4868  80.5835 15.02527715153098
STARLINK-5386           
1 54834U 22177Q   25275.05017138 -.00001279  00000+0 -79627-4 0  9994
2 54834  43.0026 275.1785 0001425 267.0440  93.0239 15.02535931153101
STARLINK-5389           
1 54835U 22177R   25275.05460845 -.00000033  00000+0  12622-4 0  9990
2 54835  43.0030 275.2136 0000947 283.7219  76.3517 15.02538774153094
STARLINK-5384           
1 54836U 22177S   25275.04684288 -.00000562  00000+0 -26502-4 0  9999
2 54836  43.0063 275.1482 0001675 271.5298  88.5353 15.02531076153108
STARLINK-5369           
1 54837U 22177T   25275.04794730 -.00003490  00000+0 -24340-3 0  9994
2 54837  43.0009 275.1630 0000518 262.6428  97.4355 15.02539680153093
STARLINK-5372           
1 54838U 22177U   25275.04017836  .00001084  00000+0  95374-4 0  9991
2 54838  43.0043 275.1020 0001023 268.3941  91.6784 15.02521135153098
STARLINK-5368           
1 54840U 22177W   25275.03130225 -.00000932  00000+0 -53947-4 0  9994
2 54840  43.0052 275.0355 0000829 280.6711  79.4038 15.02529395153098
STARLINK-4659           
1 54841U 22177X   25275.04350748  .00000901  00000+0  81734-4 0  9999
2 54841  43.0041 275.1272 0001188 268.5300  91.5406 15.02535249153093
STARLINK-5387           
1 54842U 22177Y   25274.69224191  .00000368  00000+0  42334-4 0  9992
2 54842  43.0039 276.7925 0001167 282.9884  77.0828 15.02537477153044
STARLINK-5304           
1 54843U 22177Z   25275.03685644 -.00003666  00000+0 -25647-3 0  9999
2 54843  43.0048 275.0778 0001192 253.5944 106.4768 15.02533071153093
STARLINK-5388           
1 54844U 22177AA  25275.02019918  .00000076  00000+0  20719-4 0  9990
2 54844  43.0059 274.9327 0001349 277.6612  82.4077 15.02533722153096
STARLINK-5082           
1 54845U 22177AB  25275.02797286  .00000609  00000+0  60169-4 0  9997
2 54845  43.0037 275.0090 0001205 270.6517  89.4187 15.02533733153091
STARLINK-5360           
1 54846U 22177AC  25274.48949118 -.00000822  00000+0 -45801-4 0  9995
2 54846  43.0032 277.8501 0001171 267.5621  92.5088 15.02532105153016
STARLINK-5061           
1 54847U 22177AD  25275.18142896  .00014695  00000+0  11008-2 0  9993
2 54847  43.0024 248.4306 0001646 275.2691  84.7963 15.02527973153411
STARLINK-5432           
1 54848U 22177AE  25275.02168699  .00000889  00000+0  80898-4 0  9991
2 54848  43.0027 262.8121 0001017 255.7432 104.3298 15.02531367153230
STARLINK-5434           
1 54849U 22177AF  25275.26632884  .02251183  70752-2  14139-2 0  9994
2 54849  42.9920 220.5286 0006850 198.3704 161.6935 16.18544287153741
STARLINK-5087           
1 54850U 22177AG  25275.01724926  .00000447  00000+0  48180-4 0  9992
2 54850  43.0004 262.7765 0000717 264.6759  95.4001 15.02529918153239
STARLINK-5084           
1 54851U 22177AH  25275.02057655 -.00000026  00000+0  13128-4 0  9990
2 54851  43.0040 262.8043 0001076 275.3240  84.7479 15.02539034153233
